[Satellite]
VERSION=1.1
NAME=MBSAT
NICKNAME=MBSAT
TLE1=1 28184U 04007A   15054.79120203  .00000016  00000-0  00000+0 0  9999
TLE2=2 28184   0.0231 151.1191 0000979   6.0866 341.8935  1.00271021 40192
